{"locations": [{"street_addrs": ["322 West Farms Mall", "Spc F226"], "state": "CT", "city": "Farmington", "zip": "06032"}, {"street_addrs": ["1190 Farrow Pkwy."], "state": "SC", "city": "Myrtle Beach", "zip": "29577"}, {"street_addrs": ["1127 Woodruff Rd."], "state": "SC", "city": "Greenville", "zip": "29607"}, {"street_addrs": ["1885 Hwy 17 N"], "state": "SC", "city": "Mount Pleasant", "zip": "29464"}, {"street_addrs": ["4440 The 25th Way NE"], "state": "NM", "city": "Albuquerque", "zip": "87109"}, {"street_addrs": ["983 Baltimore Pike"], "state": "PA", "city": "Glen Mills", "zip": "19342"}, {"street_addrs": ["510 Germantown Pike"], "state": "PA", "city": "Plymouth Meeting", "zip": "19462"}, {"street_addrs": ["148 West Bridge St."], "state": "PA", "city": "West Homestead", "zip": "15120"}, {"street_addrs": ["1577 Fruitville Pike"], "state": "PA", "city": "Lancaster", "zip": "17601"}, {"street_addrs": ["721 Easton Rd."], "state": "PA", "city": "Warrington", "zip": "18976"}, {"street_addrs": ["1600 Settlers Ridge Center Dr."], "state": "PA", "city": "Pittsburgh", "zip": "15205"}, {"street_addrs": ["10 Town Center Dr."], "state": "PA", "city": "Collegeville", "zip": "19426"}, {"street_addrs": ["575 E University Pkwy.", "Ste A-20"], "state": "UT", "city": "Orem", "zip": "84097"}, {"street_addrs": ["174 West 300 South"], "state": "UT", "city": "Salt Lake City", "zip": "84101"}, {"street_addrs": ["10150 California St."], "state": "NE", "city": "Omaha", "zip": "68114"}, {"street_addrs": ["110 S Jordan Creek Pkwy."], "state": "IA", "city": "West Des Moines", "zip": "50266"}, {"street_addrs": ["3265 W Market St.", "Ste 100A"], "state": "OH", "city": "Akron", "zip": "44333"}, {"street_addrs": ["4040 Townsfair Way"], "state": "OH", "city": "Columbus", "zip": "43219"}, {"street_addrs": ["2300 Village Dr. West", "Bldg. #140"], "state": "OH", "city": "Maumee", "zip": "43537"}, {"street_addrs": ["2626 Miamisburg-Centerville Rd."], "state": "OH", "city": "Dayton", "zip": "45459"}, {"street_addrs": ["26001 Chagrin Blvd."], "state": "OH", "city": "Beachwood", "zip": "44122"}, {"street_addrs": ["6135 Parkcenter Circle"], "state": "OH", "city": "Dublin", "zip": "43017"}, {"street_addrs": ["9435 Civic Center Blvd. Streets of Westchester", "Bldg. 1"], "state": "OH", "city": "West Chester", "zip": "45069"}, {"street_addrs": ["2633 Edmondson Rd."], "state": "OH", "city": "Cincinnati", "zip": "45209"}, {"street_addrs": ["1978 E 21st St."], "state": "OK", "city": "Tulsa", "zip": "74114"}, {"street_addrs": ["13700 N Pennsylvania Ave."], "state": "OK", "city": "Oklahoma City", "zip": "73134"}, {"street_addrs": ["12071 Elm Creek Blvd."], "state": "MN", "city": "Maple Grove", "zip": "55369"}, {"street_addrs": ["2700 Southdale Center"], "state": "MN", "city": "Edina", "zip": "55435"}, {"street_addrs": ["8315 S Park Meadows Center Dr."], "state": "CO", "city": "Lone Tree", "zip": "80124"}, {"street_addrs": ["5915 Sky Pond Dr."], "state": "CO", "city": "Loveland", "zip": "80538"}, {"street_addrs": ["23902 E Prospect Ave."], "state": "CO", "city": "Aurora", "zip": "80016"}, {"street_addrs": ["7210 W Alameda Ave."], "state": "CO", "city": "Lakewood", "zip": "80226"}, {"street_addrs": ["1415 15th St."], "state": "CO", "city": "Denver", "zip": "80202"}, {"street_addrs": ["1725 Briargate Pkwy."], "state": "CO", "city": "Colorado Springs", "zip": "80920"}, {"street_addrs": ["1 W Flatiron Drive", "Unit 500 Bldg. 5"], "state": "CO", "city": "Broomfield", "zip": "80021"}, {"street_addrs": ["1805 E River Rd.", "Ste 100"], "state": "AZ", "city": "Tucson", "zip": "85718"}, {"street_addrs": ["740 S Mill Ave.", "#140"], "state": "AZ", "city": "Tempe", "zip": "85281"}, {"street_addrs": ["16170 N 83rd Ave."], "state": "AZ", "city": "Peoria", "zip": "85382"}, {"street_addrs": ["7132 E Greenway Pkwy."], "state": "AZ", "city": "Scottsdale", "zip": "85254"}, {"street_addrs": ["7135 E Camelback Rd.", "Ste 101"], "state": "AZ", "city": "Scottsdale", "zip": "85251"}, {"street_addrs": ["2420 W Happy Valley Rd."], "state": "AZ", "city": "Phoenix", "zip": "85085"}, {"street_addrs": ["6610 E Superstition Springs Blvd."], "state": "AZ", "city": "Mesa", "zip": "85206"}, {"street_addrs": ["3255 W Chandler Blvd."], "state": "AZ", "city": "Chandler", "zip": "85226"}, {"street_addrs": ["14681 W McDowell Rd."], "state": "AZ", "city": "Goodyear", "zip": "85395"}, {"street_addrs": ["3667 Las Vegas Blvd."], "state": "NV", "city": "Las Vegas", "zip": "89109"}, {"street_addrs": ["4165 S Paradise Rd."], "state": "NV", "city": "Las Vegas", "zip": "89169"}, {"street_addrs": ["1095 S Rampart Blvd."], "state": "NV", "city": "Las Vegas", "zip": "89145"}, {"street_addrs": ["101 S Green Valley Pkwy"], "state": "NV", "city": "Henderson", "zip": "89012"}, {"street_addrs": ["5180 S Kietzke Ln."], "state": "NV", "city": "Reno", "zip": "89511"}, {"street_addrs": ["124 Coburg Rd."], "state": "OR", "city": "Eugene", "zip": "97401"}, {"street_addrs": ["7463 SW Bridgeport Rd."], "state": "OR", "city": "Tigard", "zip": "97224"}, {"street_addrs": ["10088 NW Emma Way"], "state": "OR", "city": "Hillsboro", "zip": "97124"}, {"street_addrs": ["2237 Deming Way"], "state": "WI", "city": "Middleton", "zip": "53562"}, {"street_addrs": ["2500 N Mayfair Rd."], "state": "WI", "city": "Wauwatosa", "zip": "53226"}, {"street_addrs": ["3100 Expressway 83"], "state": "TX", "city": "McAllen", "zip": "78503"}, {"street_addrs": ["915 W Bethany Dr."], "state": "TX", "city": "Allen", "zip": "75013"}, {"street_addrs": ["760 Sunland Park Dr."], "state": "TX", "city": "El Paso", "zip": "79912"}, {"street_addrs": ["8889 Gateway Blvd West", "Ste 2300"], "state": "TX", "city": "El Paso", "zip": "79925"}, {"street_addrs": ["650 W Hwy 114"], "state": "TX", "city": "Grapevine", "zip": "76051"}, {"street_addrs": ["1454 W Bay Area Blvd."], "state": "TX", "city": "Friendswood", "zip": "77546"}, {"street_addrs": ["1201 Lake Woodlands Dr.", "Ste 301"], "state": "TX", "city": "The Woodlands", "zip": "77380"}, {"street_addrs": ["2120 Lone Star Dr."], "state": "TX", "city": "Sugar Land", "zip": "77479"}, {"street_addrs": ["215 E I-20 Hwy"], "state": "TX", "city": "Arlington", "zip": "76018"}, {"street_addrs": ["2906 West Loop 289"], "state": "TX", "city": "Lubbock", "zip": "79407"}, {"street_addrs": ["4094 Westheimer Rd."], "state": "TX", "city": "Houston", "zip": "77027"}, {"street_addrs": ["11685 Westheimer Rd."], "state": "TX", "city": "Houston", "zip": "77077"}, {"street_addrs": ["18250 Tomball Pkwy."], "state": "TX", "city": "Houston", "zip": "77070"}, {"street_addrs": ["5488 S Padre Island Dr.", "Ste 5001"], "state": "TX", "city": "Corpus Christi", "zip": "78411"}, {"street_addrs": ["18323 N Dallas Pkwy."], "state": "TX", "city": "Dallas", "zip": "75287"}, {"street_addrs": ["8687 North Central Expressway", "Ste 225"], "state": "TX", "city": "Dallas", "zip": "75225"}, {"street_addrs": ["10114 Jollyville Rd."], "state": "TX", "city": "Austin", "zip": "78759"}, {"street_addrs": ["201 San Jacinto Blvd."], "state": "TX", "city": "Austin", "zip": "78701"}, {"street_addrs": ["400 Throckmorton"], "state": "TX", "city": "Ft Worth", "zip": "76102"}, {"street_addrs": ["15900 LaCantera Pkwy.", "Bldg. #1 Ste 1100"], "state": "TX", "city": "San Antonio", "zip": "78256"}, {"street_addrs": ["255 E Basse Road", "Ste 1200"], "state": "TX", "city": "San Antonio", "zip": "78209"}, {"street_addrs": ["8601 Keystone Crossing"], "state": "IN", "city": "Indianapolis", "zip": "46240"}, {"street_addrs": ["49 W Maryland St.", "Ste 226"], "state": "IN", "city": "Indianapolis", "zip": "46204"}, {"street_addrs": ["17390 Hall Rd.", "Unit R-103"], "state": "MI", "city": "Clinton Township", "zip": "48038"}, {"street_addrs": ["18900 Michigan Ave.", "Spc R-101"], "state": "MI", "city": "Dearborn", "zip": "48126"}, {"street_addrs": ["2064 E. Beltline Ave NE"], "state": "MI", "city": "Grand Rapids", "zip": "49525"}, {"street_addrs": ["2801 W Big Beaver Rd.", "Spc D112"], "state": "MI", "city": "Troy", "zip": "48084"}, {"street_addrs": ["2425 Lake Lansing Rd."], "state": "MI", "city": "Lansing", "zip": "48912"}, {"street_addrs": ["122 North Adams Road"], "state": "MI", "city": "Rochester", "zip": "48309"}, {"street_addrs": ["17905 Haggerty Rd."], "state": "MI", "city": "Livonia", "zip": "48152"}, {"street_addrs": ["720 Briarwood Circle"], "state": "MI", "city": "Ann Arbor", "zip": "48108"}, {"street_addrs": ["317 S Shackleford Rd."], "state": "AR", "city": "Little Rock", "zip": "72211"}, {"street_addrs": ["2203 S Promenade", "Ste 13100"], "state": "AR", "city": "Rogers", "zip": "72758"}, {"street_addrs": ["5406 Wisconsin Ave", "Ste B"], "state": "MD", "city": "Chevy Chase", "zip": "20815"}, {"street_addrs": ["307 Sail Place"], "state": "MD", "city": "Annapolis", "zip": "21401"}, {"street_addrs": ["825 Dulaney Valley Rd.", "Ste 1161"], "state": "MD", "city": "Towson", "zip": "21204"}, {"street_addrs": ["8342 Honeygo Blvd."], "state": "MD", "city": "Baltimore", "zip": "21236"}, {"street_addrs": ["600 E Pratt St.", "Ste 101"], "state": "MD", "city": "Baltimore", "zip": "21202"}, {"street_addrs": ["10300 Little Patuxent Pkwy", "Ste 3020"], "state": "MD", "city": "Columbia", "zip": "21044"}, {"street_addrs": ["7341 Corporate Blvd."], "state": "LA", "city": "Baton Rouge", "zip": "70809"}, {"street_addrs": ["3301 Veterans Memorial Blvd.", "Unit #63"], "state": "LA", "city": "Metairie", "zip": "70002"}, {"street_addrs": ["410 Legacy Place"], "state": "MA", "city": "Dedham", "zip": "02026"}, {"street_addrs": ["1245 Worcester St.", "Ste #4008"], "state": "MA", "city": "Natick", "zip": "01760"}, {"street_addrs": ["8 Park Plaza", "Spc D-6"], "state": "MA", "city": "Boston", "zip": "02116"}, {"street_addrs": ["100 CambridgeSide Place", "Ste C101"], "state": "MA", "city": "Cambridge", "zip": "02141"}, {"street_addrs": ["14135 La Grange Rd."], "state": "IL", "city": "Orland Park", "zip": "60462"}, {"street_addrs": ["530 N Wabash Ave."], "state": "IL", "city": "Chicago", "zip": "60611"}, {"street_addrs": ["1819 Lake Cook Rd."], "state": "IL", "city": "Northbrook", "zip": "60062"}, {"street_addrs": ["2361 Fountain Square Dr."], "state": "IL", "city": "Lombard", "zip": "60148"}, {"street_addrs": ["5 Woodfield Mall", "Spc D313"], "state": "IL", "city": "Schaumburg", "zip": "60173"}, {"street_addrs": ["4250 Fairfax Corner Ave."], "state": "VA", "city": "Fairfax", "zip": "22030"}, {"street_addrs": ["9212 Stony Point"], "state": "VA", "city": "Richmond", "zip": "23235"}, {"street_addrs": ["901 N Glebe Rd."], "state": "VA", "city": "Arlington", "zip": "22203"}, {"street_addrs": ["15151 Potomac Town Place"], "state": "VA", "city": "Woodbridge", "zip": "22191"}, {"street_addrs": ["12090 Jefferson Ave", "Ste 1600"], "state": "VA", "city": "Newport News", "zip": "23606"}, {"street_addrs": ["4551 Virginia Beach Blvd."], "state": "VA", "city": "Virginia Beach", "zip": "23462"}, {"street_addrs": ["1716M International Dr."], "state": "VA", "city": "McLean", "zip": "22102"}, {"street_addrs": ["21078 Dulles Town Circle"], "state": "VA", "city": "Sterling", "zip": "20166"}, {"street_addrs": ["1295 Chesterfield Pkwy. East"], "state": "MO", "city": "Chesterfield", "zip": "63017"}, {"street_addrs": ["400 Lombard Street"], "state": "MO", "city": "Saint Charles", "zip": "63303"}, {"street_addrs": ["102 W 47th St."], "state": "MO", "city": "Kansas City", "zip": "64112"}, {"street_addrs": ["25 The Boulevard Saint Louis"], "state": "MO", "city": "Richmond Heights", "zip": "63117"}, {"street_addrs": ["3710 Rt 9", "Ste 2817"], "state": "NJ", "city": "Freehold", "zip": "07728"}, {"street_addrs": ["500 Route 73 South", "Spc G1"], "state": "NJ", "city": "Marlton", "zip": "08053"}, {"street_addrs": ["2801 N Pacific Ave.", "#101 The Quarter at the Tropicana"], "state": "NJ", "city": "Atlantic City", "zip": "08401"}, {"street_addrs": ["10 Port Imperial Blvd."], "state": "NJ", "city": "West New York", "zip": "07093"}, {"street_addrs": ["390 Hackensack Ave.", "Ste 50"], "state": "NJ", "city": "Hackensack", "zip": "07601"}, {"street_addrs": ["3545 US Highway 1"], "state": "NJ", "city": "Princeton", "zip": "08540"}, {"street_addrs": ["3450 Wrightsboro Rd.", "Ste D215"], "state": "GA", "city": "Augusta", "zip": "30909"}, {"street_addrs": ["1624 Cumberland Mall", "Ste LS108"], "state": "GA", "city": "Atlanta", "zip": "30339"}, {"street_addrs": ["Concourse A-Space F11 8700 Spine Road"], "state": "GA", "city": "Atlanta", "zip": "30320"}, {"street_addrs": ["500 Ashwood Pkwy."], "state": "GA", "city": "Atlanta", "zip": "30338"}, {"street_addrs": ["3333 Buford Dr.", "Spc VA03"], "state": "GA", "city": "Buford", "zip": "30519"}, {"street_addrs": ["7925 N Point Pkwy."], "state": "GA", "city": "Alpharetta", "zip": "30022"}, {"street_addrs": ["11361 NW 12th St."], "state": "FL", "city": "Miami", "zip": "33172"}, {"street_addrs": ["901 S Miami Ave.", "Ste 104"], "state": "FL", "city": "Miami", "zip": "33131"}, {"street_addrs": ["8888 SW 136th St.", "Ste 100"], "state": "FL", "city": "Miami", "zip": "33176"}, {"street_addrs": ["640 Grand Blvd."], "state": "FL", "city": "Sandestin", "zip": "32550"}, {"street_addrs": ["4200 Conroy Rd."], "state": "FL", "city": "Orlando", "zip": "32839"}, {"street_addrs": ["10081 Gulf Center Drive Gulf Coast Town Center"], "state": "FL", "city": "Fort Myers", "zip": "33913"}, {"street_addrs": ["2418 E Sunrise Blvd."], "state": "FL", "city": "Ft Lauderdale", "zip": "33304"}, {"street_addrs": ["3597 SW 32nd Ct", "Ste 10"], "state": "FL", "city": "Gainesville", "zip": "32608"}, {"street_addrs": ["1862 Victory Circle L100"], "state": "FL", "city": "Daytona Beach", "zip": "32114"}, {"street_addrs": ["436 North Orlando Ave."], "state": "FL", "city": "Winter Park", "zip": "32789"}, {"street_addrs": ["27001 US Highway 19 N", "Ste #1150"], "state": "FL", "city": "Clearwater", "zip": "33761"}, {"street_addrs": ["1740 Sawgrass Mills Circle"], "state": "FL", "city": "Sunrise", "zip": "33323"}, {"street_addrs": ["17455 Biscayne Blvd."], "state": "FL", "city": "Miami Beach", "zip": "33160"}, {"street_addrs": ["827 Brandon Town Center"], "state": "FL", "city": "Brandon", "zip": "33511"}, {"street_addrs": ["219 Westshore Plaza"], "state": "FL", "city": "Tampa", "zip": "33609"}, {"street_addrs": ["1400 Glades Rd. Bay 220"], "state": "FL", "city": "Boca Raton", "zip": "33431"}, {"street_addrs": ["766 S. Osprey Avenue"], "state": "FL", "city": "Sarasota", "zip": "34236"}, {"street_addrs": ["10281 Midtown Pkwy.", "#137"], "state": "FL", "city": "Jacksonville", "zip": "32246"}, {"street_addrs": ["3101 PGA Blvd.", "Ste F142"], "state": "FL", "city": "Palm Beach Gardens", "zip": "33410"}, {"street_addrs": ["10840 Tamiami Trail North"], "state": "FL", "city": "Naples", "zip": "34109"}, {"street_addrs": ["2525 W End", "Ste #2535"], "state": "TN", "city": "Nashville", "zip": "37203"}, {"street_addrs": ["1181 Ridgeway Rd."], "state": "TN", "city": "Memphis", "zip": "38119"}, {"street_addrs": ["6741 Kingston Pike"], "state": "TN", "city": "Knoxville", "zip": "37919"}, {"street_addrs": ["439 Cool Springs Blvd."], "state": "TN", "city": "Franklin", "zip": "37067"}, {"street_addrs": ["2110 Hamilton Place Blvd. Hamilton Place Mall"], "state": "TN", "city": "Chattanooga", "zip": "37421"}, {"street_addrs": ["4325 Glenwood Ave.", "#2089"], "state": "NC", "city": "Raleigh", "zip": "27612"}, {"street_addrs": ["175 Harvey Street"], "state": "NC", "city": "Winston Salem", "zip": "27103"}, {"street_addrs": ["6801 Fayetteville Rd."], "state": "NC", "city": "Durham", "zip": "27713"}, {"street_addrs": ["6809-F Phillips Place Court"], "state": "NC", "city": "Charlotte", "zip": "28210"}, {"street_addrs": ["10325 Perimeter Pkwy."], "state": "NC", "city": "Charlotte", "zip": "28216"}, {"street_addrs": ["26 Schenck Pkwy."], "state": "NC", "city": "Asheville", "zip": "28803"}, {"street_addrs": ["3338 W Friendly Ave."], "state": "NC", "city": "Greensboro", "zip": "27410"}, {"street_addrs": ["9120 Shelbyville Rd."], "state": "KY", "city": "Louisville", "zip": "40222"}, {"street_addrs": ["3405 Nicholasville Rd."], "state": "KY", "city": "Lexington", "zip": "40503"}, {"street_addrs": ["111 Providence Place"], "state": "RI", "city": "Providence", "zip": "02903"}, {"street_addrs": ["910 Highland Colony Pkwy."], "state": "MS", "city": "Ridgeland", "zip": "39157"}, {"street_addrs": ["2201 Kalakaua Ave."], "state": "HI", "city": "Honolulu", "zip": "96815"}, {"street_addrs": ["71800 Hwy 111", "Ste C-104"], "state": "CA", "city": "Rancho Mirage", "zip": "92270"}, {"street_addrs": ["800 The Shops at Mission Viejo"], "state": "CA", "city": "Mission Viejo", "zip": "92691"}, {"street_addrs": ["7870 Monticello Ave."], "state": "CA", "city": "Rancho Cucamonga", "zip": "91739"}, {"street_addrs": ["925 Blossom Hill Rd.", "#1515"], "state": "CA", "city": "San Jose", "zip": "95123"}, {"street_addrs": ["1145 Newport Center Dr."], "state": "CA", "city": "Newport Beach", "zip": "92660"}, {"street_addrs": ["514 Spectrum Center Drive"], "state": "CA", "city": "Irvine", "zip": "92618"}, {"street_addrs": ["2250 Thousand Oaks Blvd."], "state": "CA", "city": "Thousand Oaks", "zip": "91362"}, {"street_addrs": ["5633 Bay St."], "state": "CA", "city": "Emeryville", "zip": "94608"}, {"street_addrs": ["300 E. Colorado Blvd.", "Ste 218"], "state": "CA", "city": "Pasadena", "zip": "91101"}, {"street_addrs": ["40762 Winchester Rd.", "Ste #400"], "state": "CA", "city": "Temecula", "zip": "92591"}, {"street_addrs": ["1530 J. St.", "Ste 100"], "state": "CA", "city": "Sacramento", "zip": "95814"}, {"street_addrs": ["360 Los Cerritos Center", "#C15"], "state": "CA", "city": "Cerritos", "zip": "90703"}, {"street_addrs": ["1180 Galleria Blvd."], "state": "CA", "city": "Roseville", "zip": "95678"}, {"street_addrs": ["1205 Broadway Plaza"], "state": "CA", "city": "Walnut Creek", "zip": "94596"}, {"street_addrs": ["43316 Christy St."], "state": "CA", "city": "Fremont", "zip": "94538"}, {"street_addrs": ["390 W El Camino Real"], "state": "CA", "city": "Sunnyvale", "zip": "94087"}, {"street_addrs": ["7894 N Blackstone Ave."], "state": "CA", "city": "Fresno", "zip": "93720"}, {"street_addrs": ["21821 Oxnard St."], "state": "CA", "city": "Woodland Hills", "zip": "91367"}, {"street_addrs": ["4540 La Jolla Village Dr."], "state": "CA", "city": "San Diego", "zip": "92122"}, {"street_addrs": ["7077 Friars Rd."], "state": "CA", "city": "San Diego", "zip": "92108"}, {"street_addrs": ["900 Stanford Shopping Center", "Bldg. W"], "state": "CA", "city": "Palo Alto", "zip": "94304"}, {"street_addrs": ["1200 Del Monte Center"], "state": "CA", "city": "Monterey", "zip": "93940"}, {"street_addrs": ["326 Wilshire Blvd."], "state": "CA", "city": "Santa Monica", "zip": "90401"}, {"street_addrs": ["3445 Grand Ave."], "state": "CA", "city": "Chino Hills", "zip": "91709"}, {"street_addrs": ["3525 Carson St. R7", "#166"], "state": "CA", "city": "Torrance", "zip": "90503"}, {"street_addrs": ["3475 Tyler St."], "state": "CA", "city": "Riverside", "zip": "92503"}, {"street_addrs": ["2015 Birch Rd.", "Ste 1401"], "state": "CA", "city": "Chula Vista", "zip": "91915"}, {"street_addrs": ["321 W Katella Ave.", "Ste 120"], "state": "CA", "city": "Anaheim", "zip": "92802"}, {"street_addrs": ["10700 Stockdale Hwy."], "state": "CA", "city": "Bakersfield", "zip": "93311"}, {"street_addrs": ["5621 Paseo Del Norte"], "state": "CA", "city": "Carlsbad", "zip": "92008"}, {"street_addrs": ["340 S Pine Ave."], "state": "CA", "city": "Long Beach", "zip": "90802"}, {"street_addrs": ["2041 Rosecrans Ave.", "Ste #120"], "state": "CA", "city": "El Segundo", "zip": "90245"}, {"street_addrs": ["15301 Ventura Blvd.", "Ste P-22"], "state": "CA", "city": "Sherman Oaks", "zip": "91403"}, {"street_addrs": ["1330 Stoneridge Mall Rd."], "state": "CA", "city": "Pleasanton", "zip": "94588"}, {"street_addrs": ["400 Pine St.", "Ste 136"], "state": "WA", "city": "Seattle", "zip": "98101"}, {"street_addrs": ["3000 184th St.", "Ste 912"], "state": "WA", "city": "Lynnwood", "zip": "98037"}, {"street_addrs": ["801 W Main"], "state": "WA", "city": "Spokane", "zip": "99201"}, {"street_addrs": ["525 Bellevue Square"], "state": "WA", "city": "Bellevue", "zip": "98004"}, {"street_addrs": ["391 S 8th St."], "state": "ID", "city": "Boise", "zip": "83702"}, {"street_addrs": ["476 Smith Haven Mall"], "state": "NY", "city": "Lake Grove", "zip": "11755"}, {"street_addrs": ["125 Westchester Ave.", "Spc D315"], "state": "NY", "city": "White Plains", "zip": "10601"}, {"street_addrs": ["1504 Old Country Rd.", "#B9A"], "state": "NY", "city": "Westbury", "zip": "11590"}, {"street_addrs": ["820 Eastview Mall"], "state": "NY", "city": "Victor", "zip": "14564"}, {"street_addrs": ["131 Colonie Center", "Spc 305"], "state": "NY", "city": "Albany", "zip": "12205"}, {"street_addrs": ["306 Hiawatha Blvd W", "Spc H-111"], "state": "NY", "city": "Syracuse", "zip": "13204"}, {"street_addrs": ["160 Walt Whitman Rd", "Spc 1027B"], "state": "NY", "city": "Huntington Station", "zip": "11746"}, {"street_addrs": ["1 Galleria Dr. TH131"], "state": "NY", "city": "Buffalo", "zip": "14225"}, {"street_addrs": ["1125 Fashion Drive"], "state": "NY", "city": "Nanuet", "zip": "10954"}, {"street_addrs": ["1401 Waterfront Pkwy."], "state": "KS", "city": "Wichita", "zip": "67206"}, {"street_addrs": ["3250 Bel Air Mall"], "state": "AL", "city": "Mobile", "zip": "36606"}, {"street_addrs": ["233 Summit Blvd."], "state": "AL", "city": "Birmingham", "zip": "35243"}, {"street_addrs": ["305 The Bridge St.", "Ste 101"], "state": "AL", "city": "Huntsville", "zip": "35806"}, {"street_addrs": ["525 F.D. Roosevelt Avenue"], "state": "PR", "city": "San Juan", "zip": "00918"}]}